{"fetched_at":"2026-03-30T13:17:50Z","count":15418,"tles":[{"name":"STARLINK-32541","line1":"1 61916U 24207E   26087.61690659  .00040298  00000+0  14649-2 0  9991","line2":"2 61916  43.0014 178.5796 0001095 288.9870  71.0863 15.27604376 77579","category":"Starlink"}]}