{
  "norad_id": 61916,
  "name": "STARLINK-32541",
  "history": [
    {
      "epoch": "2026-03-28T14:48:20.729376Z",
      "apogee_km": 483.72739838218786,
      "perigee_km": 482.22481461186453,
      "latitude_deg": 5.001947901552382e-06,
      "longitude_deg": 130.45844623667105,
      "height_km": 482.5082494149947,
      "semi_major_axis_km": 6861.113106497026,
      "eccentricity": 0.0001095,
      "inclination_deg": 43.0014,
      "raan_deg": 178.5796,
      "arg_perigee_deg": 288.987,
      "mean_anomaly_deg": 71.0863,
      "mean_motion_rev_day": 15.27604376
    }
  ]
}